{
  "type": "FeatureCollection",
  "features": [
    {
      "type": "Feature",
      "properties": {
        "norad_id": 28890,
        "name": "BEIJING 1",
        "group": "dmc",
        "lat": 5.113270221366378,
        "lon": 120.93376821186939,
        "alt_km": 689.0590503463027,
        "timestamp": "2025-12-20T03:42:47.058691+00:00",
        "meta_object_name": "BEIJING 1",
        "meta_object_id": "2005-043A",
        "meta_epoch": "2025-12-19T21:07:31.458144",
        "meta_mean_motion": 14.63373757,
        "meta_eccentricity": 0.0015645,
        "meta_inclination": 98.2654,
        "meta_ra_of_asc_node": 121.404,
        "meta_arg_of_pericenter": 120.0496,
        "meta_mean_anomaly": 240.226,
        "meta_ephemeris_type": 0,
        "meta_classification_type": "U",
        "meta_norad_cat_id": 28890,
        "meta_element_set_no": 999,
        "meta_rev_at_epoch": 7442,
        "meta_bstar": 0.00013208,
        "meta_mean_motion_dot": 6.35e-06,
        "meta_mean_motion_ddot": 0,
        "tle_line1": "1 28890U 05043A   25353.88022521  .00000635  00000+0  13208-3 0  9995",
        "tle_line2": "2 28890  98.2654 121.4040 0015645 120.0496 240.2260 14.63373757 74427"
      },
      "geometry": {
        "type": "Point",
        "coordinates": [
          120.93376821186939,
          5.113270221366378
        ]
      }
    },
    {
      "type": "Feature",
      "properties": {
        "norad_id": 33320,
        "name": "HUANJING 1A (HJ-1A)",
        "group": "dmc",
        "lat": -26.338030905818144,
        "lon": 158.32645117961698,
        "alt_km": 637.5299507470863,
        "timestamp": "2025-12-20T03:42:47.058714+00:00",
        "meta_object_name": "HUANJING 1A (HJ-1A)",
        "meta_object_id": "2008-041A",
        "meta_epoch": "2025-12-19T21:55:42.135168",
        "meta_mean_motion": 14.83413838,
        "meta_eccentricity": 0.0019635,
        "meta_inclination": 97.6535,
        "meta_ra_of_asc_node": 341.9125,
        "meta_arg_of_pericenter": 11.5846,
        "meta_mean_anomaly": 348.5816,
        "meta_ephemeris_type": 0,
        "meta_classification_type": "U",
        "meta_norad_cat_id": 33320,
        "meta_element_set_no": 999,
        "meta_rev_at_epoch": 93182,
        "meta_bstar": 9.78e-05,
        "meta_mean_motion_dot": 7.54e-06,
        "meta_mean_motion_ddot": 0,
        "tle_line1": "1 33320U 08041A   25353.91368212  .00000754  00000+0  97800-4 0  9997",
        "tle_line2": "2 33320  97.6535 341.9125 0019635  11.5846 348.5816 14.83413838931823"
      },
      "geometry": {
        "type": "Point",
        "coordinates": [
          158.32645117961698,
          -26.338030905818144
        ]
      }
    },
    {
      "type": "Feature",
      "properties": {
        "norad_id": 33321,
        "name": "HUANJING 1B (HJ-1B)",
        "group": "dmc",
        "lat": 51.58391037877113,
        "lon": -23.923122049320224,
        "alt_km": 589.017152291136,
        "timestamp": "2025-12-20T03:42:47.058729+00:00",
        "meta_object_name": "HUANJING 1B (HJ-1B)",
        "meta_object_id": "2008-041B",
        "meta_epoch": "2025-12-19T21:00:06.607872",
        "meta_mean_motion": 14.82839443,
        "meta_eccentricity": 0.0037999,
        "meta_inclination": 97.6396,
        "meta_ra_of_asc_node": 345.5538,
        "meta_arg_of_pericenter": 53.249,
        "meta_mean_anomaly": 307.2203,
        "meta_ephemeris_type": 0,
        "meta_classification_type": "U",
        "meta_norad_cat_id": 33321,
        "meta_element_set_no": 999,
        "meta_rev_at_epoch": 93183,
        "meta_bstar": 0.00015537,
        "meta_mean_motion_dot": 1.222e-05,
        "meta_mean_motion_ddot": 0,
        "tle_line1": "1 33321U 08041B   25353.87507648  .00001222  00000+0  15537-3 0  9998",
        "tle_line2": "2 33321  97.6396 345.5538 0037999  53.2490 307.2203 14.82839443931834"
      },
      "geometry": {
        "type": "Point",
        "coordinates": [
          -23.923122049320224,
          51.58391037877113
        ]
      }
    },
    {
      "type": "Feature",
      "properties": {
        "norad_id": 33446,
        "name": "YAOGAN-4",
        "group": "dmc",
        "lat": -39.150977156366494,
        "lon": -69.31167127373405,
        "alt_km": 618.8195159999132,
        "timestamp": "2025-12-20T03:42:47.058742+00:00",
        "meta_object_name": "YAOGAN-4",
        "meta_object_id": "2008-061A",
        "meta_epoch": "2025-12-19T10:04:29.303904",
        "meta_mean_motion": 14.8270055,
        "meta_eccentricity": 0.0013167,
        "meta_inclination": 97.919,
        "meta_ra_of_asc_node": 283.4536,
        "meta_arg_of_pericenter": 299.8838,
        "meta_mean_anomaly": 60.1067,
        "meta_ephemeris_type": 0,
        "meta_classification_type": "U",
        "meta_norad_cat_id": 33446,
        "meta_element_set_no": 999,
        "meta_rev_at_epoch": 91902,
        "meta_bstar": 0.00012167,
        "meta_mean_motion_dot": 9.29e-06,
        "meta_mean_motion_ddot": 0,
        "tle_line1": "1 33446U 08061A   25353.41978361  .00000929  00000+0  12167-3 0  9991",
        "tle_line2": "2 33446  97.9190 283.4536 0013167 299.8838  60.1067 14.82700550919026"
      },
      "geometry": {
        "type": "Point",
        "coordinates": [
          -69.31167127373405,
          -39.150977156366494
        ]
      }
    },
    {
      "type": "Feature",
      "properties": {
        "norad_id": 35681,
        "name": "DEIMOS-1",
        "group": "dmc",
        "lat": -62.96637117889521,
        "lon": -40.99278772370742,
        "alt_km": 654.2980249091297,
        "timestamp": "2025-12-20T03:42:47.058753+00:00",
        "meta_object_name": "DEIMOS-1",
        "meta_object_id": "2009-041A",
        "meta_epoch": "2025-12-19T20:05:52.230048",
        "meta_mean_motion": 14.74964702,
        "meta_eccentricity": 0.0002614,
        "meta_inclination": 97.7142,
        "meta_ra_of_asc_node": 154.11,
        "meta_arg_of_pericenter": 68.2929,
        "meta_mean_anomaly": 291.8559,
        "meta_ephemeris_type": 0,
        "meta_classification_type": "U",
        "meta_norad_cat_id": 35681,
        "meta_element_set_no": 999,
        "meta_rev_at_epoch": 88044,
        "meta_bstar": 0.00014151,
        "meta_mean_motion_dot": 9.04e-06,
        "meta_mean_motion_ddot": 0,
        "tle_line1": "1 35681U 09041A   25353.83741007  .00000904  00000+0  14151-3 0  9992",
        "tle_line2": "2 35681  97.7142 154.1100 0002614  68.2929 291.8559 14.74964702880443"
      },
      "geometry": {
        "type": "Point",
        "coordinates": [
          -40.99278772370742,
          -62.96637117889521
        ]
      }
    },
    {
      "type": "Feature",
      "properties": {
        "norad_id": 35683,
        "name": "UK-DMC 2",
        "group": "dmc",
        "lat": -79.49415901411054,
        "lon": 176.9676904867134,
        "alt_km": 651.5301141636128,
        "timestamp": "2025-12-20T03:42:47.058764+00:00",
        "meta_object_name": "UK-DMC 2",
        "meta_object_id": "2009-041C",
        "meta_epoch": "2025-12-19T19:57:06.643296",
        "meta_mean_motion": 14.75637647,
        "meta_eccentricity": 0.0001507,
        "meta_inclination": 97.856,
        "meta_ra_of_asc_node": 128.5337,
        "meta_arg_of_pericenter": 93.7734,
        "meta_mean_anomaly": 266.3648,
        "meta_ephemeris_type": 0,
        "meta_classification_type": "U",
        "meta_norad_cat_id": 35683,
        "meta_element_set_no": 999,
        "meta_rev_at_epoch": 88011,
        "meta_bstar": 0.00016218,
        "meta_mean_motion_dot": 1.058e-05,
        "meta_mean_motion_ddot": 0,
        "tle_line1": "1 35683U 09041C   25353.83132689  .00001058  00000+0  16218-3 0  9991",
        "tle_line2": "2 35683  97.8560 128.5337 0001507  93.7734 266.3648 14.75637647880110"
      },
      "geometry": {
        "type": "Point",
        "coordinates": [
          176.9676904867134,
          -79.49415901411054
        ]
      }
    },
    {
      "type": "Feature",
      "properties": {
        "norad_id": 40715,
        "name": "DMC3-FM1",
        "group": "dmc",
        "lat": -47.01091669499076,
        "lon": 32.76510014978856,
        "alt_km": 617.6850682294044,
        "timestamp": "2025-12-20T03:42:47.058775+00:00",
        "meta_object_name": "DMC3-FM1",
        "meta_object_id": "2015-032A",
        "meta_epoch": "2025-12-19T21:50:29.971968",
        "meta_mean_motion": 14.85450127,
        "meta_eccentricity": 0.0004255,
        "meta_inclination": 97.6691,
        "meta_ra_of_asc_node": 220.8409,
        "meta_arg_of_pericenter": 292.0696,
        "meta_mean_anomaly": 68.0067,
        "meta_ephemeris_type": 0,
        "meta_classification_type": "U",
        "meta_norad_cat_id": 40715,
        "meta_element_set_no": 999,
        "meta_rev_at_epoch": 56329,
        "meta_bstar": 3.8115e-05,
        "meta_mean_motion_dot": 2.77e-06,
        "meta_mean_motion_ddot": 0,
        "tle_line1": "1 40715U 15032A   25353.91006912  .00000277  00000+0  38115-4 0  9991",
        "tle_line2": "2 40715  97.6691 220.8409 0004255 292.0696  68.0067 14.85450127563291"
      },
      "geometry": {
        "type": "Point",
        "coordinates": [
          32.76510014978856,
          -47.01091669499076
        ]
      }
    },
    {
      "type": "Feature",
      "properties": {
        "norad_id": 40716,
        "name": "DMC3-FM2",
        "group": "dmc",
        "lat": 71.0388378930941,
        "lon": 65.63571661529856,
        "alt_km": 608.5989798095643,
        "timestamp": "2025-12-20T03:42:47.058785+00:00",
        "meta_object_name": "DMC3-FM2",
        "meta_object_id": "2015-032B",
        "meta_epoch": "2025-12-19T20:45:52.873920",
        "meta_mean_motion": 14.85453639,
        "meta_eccentricity": 0.0004785,
        "meta_inclination": 97.6749,
        "meta_ra_of_asc_node": 222.2466,
        "meta_arg_of_pericenter": 298.6268,
        "meta_mean_anomaly": 61.4466,
        "meta_ephemeris_type": 0,
        "meta_classification_type": "U",
        "meta_norad_cat_id": 40716,
        "meta_element_set_no": 999,
        "meta_rev_at_epoch": 56328,
        "meta_bstar": 0.00010022,
        "meta_mean_motion_dot": 8.13e-06,
        "meta_mean_motion_ddot": 0,
        "tle_line1": "1 40716U 15032B   25353.86519530  .00000813  00000+0  10022-3 0  9993",
        "tle_line2": "2 40716  97.6749 222.2466 0004785 298.6268  61.4466 14.85453639563280"
      },
      "geometry": {
        "type": "Point",
        "coordinates": [
          65.63571661529856,
          71.0388378930941
        ]
      }
    },
    {
      "type": "Feature",
      "properties": {
        "norad_id": 40717,
        "name": "DMC3-FM3",
        "group": "dmc",
        "lat": -8.540746208860021,
        "lon": -134.67474670849273,
        "alt_km": 614.4944653252905,
        "timestamp": "2025-12-20T03:42:47.058795+00:00",
        "meta_object_name": "DMC3-FM3",
        "meta_object_id": "2015-032C",
        "meta_epoch": "2025-12-19T21:17:06.205632",
        "meta_mean_motion": 14.85442157,
        "meta_eccentricity": 0.0004085,
        "meta_inclination": 97.6806,
        "meta_ra_of_asc_node": 223.9056,
        "meta_arg_of_pericenter": 300.9056,
        "meta_mean_anomaly": 59.1757,
        "meta_ephemeris_type": 0,
        "meta_classification_type": "U",
        "meta_norad_cat_id": 40717,
        "meta_element_set_no": 999,
        "meta_rev_at_epoch": 56329,
        "meta_bstar": 0.00010707,
        "meta_mean_motion_dot": 8.71e-06,
        "meta_mean_motion_ddot": 0,
        "tle_line1": "1 40717U 15032C   25353.88687738  .00000871  00000+0  10707-3 0  9996",
        "tle_line2": "2 40717  97.6806 223.9056 0004085 300.9056  59.1757 14.85442157563294"
      },
      "geometry": {
        "type": "Point",
        "coordinates": [
          -134.67474670849273,
          -8.540746208860021
        ]
      }
    }
  ]
}